0 COSMOS 1481 DEB
1 27906U 83070H   13275.84058836  .00000859  00000-0  00000+0 0   860
2 27906 065.4640 123.6138 7255536 024.6962 358.0002 02.04983648124938
0 COSMOS 1481 DEB
1 27906U 83070H   13282.66949842  .00000067  00000-0  00000+0 0   876
2 27906 065.4809 122.7263 7256975 024.5791 357.3999 02.04997177125076
0 COSMOS 1481 DEB
1 27906U 83070H   13282.68022317  .00000064  00000-0  00000+0 0   885
2 27906 065.4606 122.7026 7257264 024.5883 005.3059 02.04997017125072
0 COSMOS 1481 DEB
1 27906U 83070H   13283.64512575  .00000568  00000-0  29247-1 0   900
2 27906 065.3770 122.5436 7256926 024.5813 357.4808 02.04997157125093
0 COSMOS 1481 DEB
1 27906U 83070H   13287.54761046 -.00000907  00000-0  00000+0 0   904
2 27906 065.4871 122.0833 7258385 024.4825 357.4204 02.05001266125172
0 COSMOS 1481 DEB
1 27906U 83070H   13287.55286682 -.00000907  00000-0  00000+0 0   914
2 27906 065.4630 122.0598 7258520 024.5049 001.2932 02.05002565125178
